IRIDIUM 155             
1 43573U 18061E   24070.95875599  .00000576  00000+0  19859-3 0  9990
2 43573  86.3962  42.7954 0002244  91.9486 268.1967 14.34213937294649
IRIDIUM 154             
1 43574U 18061F   24071.42813001  .00000390  00000+0  13212-3 0  9995
2 43574  86.4000  42.6917 0002847  87.0910 273.0612 14.34203453294766
IRIDIUM 163             
1 43575U 18061G   24070.92072357  .00000024  00000+0  16280-5 0  9995
2 43575  86.3964  42.8455 0002116  86.3057 273.8380 14.34216949294660
IRIDIUM 156             
1 43576U 18061H   24071.45349627  .00000351  00000+0  11822-3 0  9990
2 43576  86.3967  42.6287 0002450  88.4204 271.7272 14.34216581294729
IRIDIUM 164             
1 43577U 18061J   24070.94609177  .00000438  00000+0  14942-3 0  9995
2 43577  86.3965  42.8685 0002419  83.2435 276.9036 14.34218158294701
IRIDIUM 159             
1 43578U 18061K   24070.91437934  .00000017  00000+0 -10854-5 0  9997
2 43578  86.3962  42.8359 0002136  84.7009 275.4430 14.34217060294664
IRIDIUM 180             
1 43922U 19002A   24070.84410788  .00000392  00000+0  13290-3 0  9996
2 43922  86.4017 339.7865 0002156  83.2108 276.9333 14.34221685270261
IRIDIUM 176             
1 43923U 19002B   24070.76828947  .00001449  00000+0  22560-3 0  9992
2 43923  86.6145 339.8461 0002651  83.8916 276.2603 14.72308384277367
IRIDIUM 168             
1 43924U 19002C   24070.48891603  .00000306  00000+0  10224-3 0  9996
2 43924  86.4020 339.9887 0002072  82.6904 277.4527 14.34220941270194
IRIDIUM 173             
1 43925U 19002D   24070.82506856  .00000394  00000+0  13351-3 0  9999
2 43925  86.4015 339.7712 0002116  83.6995 276.4442 14.34221170270228
IRIDIUM 169             
1 43926U 19002E   24070.91259443  .00000506  00000+0  15904-3 0  9998
2 43926  86.4278  11.3223 0002751 144.0042 216.1342 14.38618158271142
IRIDIUM 172             
1 43927U 19002F   24070.81873639  .00000417  00000+0  14167-3 0  9998
2 43927  86.4017 339.7791 0002238  83.7565 276.3886 14.34217633270239
IRIDIUM 175             
1 43928U 19002G   24070.96640785  .00001246  00000+0  19349-3 0  9997
2 43928  86.1521 318.4653 0002290  85.3794 274.7684 14.72290943277386
IRIDIUM 171             
1 43929U 19002H   24070.79971080  .00000405  00000+0  13765-3 0  9996
2 43929  86.4026 340.0015 0002308  83.5783 276.5675 14.34217558270226
IRIDIUM 170             
1 43930U 19002J   24071.18229847  .00001420  00000+0  22096-3 0  9994
2 43930  86.6143 339.6777 0002731  84.5819 275.5710 14.72305316277431
IRIDIUM 167             
1 43931U 19002K   24070.79336708  .00000212  00000+0  68680-4 0  9994
2 43931  86.4016 339.8052 0002256  84.0368 276.1085 14.34216727270220
IRIDIUM 181             
1 56726U 23068S   24070.95469361  .00000555  00000+0  15802-3 0  9994
2 56726  86.8660  28.6576 0002974  86.3937 273.7605 14.43610560 42965
IRIDIUM 177             
1 56727U 23068T   24071.33803562  .00002111  00000+0  27418-3 0  9999
2 56727  86.2034   1.8096 0002691  88.6125 271.5404 14.80251195 43909
IRIDIUM 174             
1 56728U 23068U   24071.53541568  .00002149  00000+0  27921-3 0  9997
2 56728  86.2040   1.8117 0002602  90.5202 269.6317 14.80251863 43937
IRIDIUM 178             
1 56729U 23068V   24070.85401091  .00002064  00000+0  26813-3 0  9993
2 56729  86.5834  14.9254 0002537  90.3216 269.8296 14.80249740 43837
IRIDIUM 179             
1 56730U 23068W   24070.91620017  .00002062  00000+0  26784-3 0  9998
2 56730  86.6840  17.7923 0002641  92.6358 267.5166 14.80249079 43846
